[
    {
        "Altitude(m)": 612502.2386925519,
        "Argument of Periapsis(deg)": 0.0,
        "Eccentricity": 0.0,
        "Inclination(deg)": 60.0,
        "Latitude(deg)": -28.13611578360262,
        "Longitude(deg)": -137.851798230643,
        "Mean Anomaly(deg)": -32.72730000000006,
        "RAAN(deg)": 340.00000000000006,
        "Satellite Name": "Test1 1516",
        "Satellite Number": 1516,
        "Semi-Major Axis(m)": 6980739.136638005,
        "Time(s)": 0
    },
    {
        "Altitude(m)": 612308.6862143291,
        "Argument of Periapsis(deg)": 0.00010418945913296404,
        "Eccentricity": 0.0,
        "Inclination(deg)": 60.0,
        "Latitude(deg)": -27.62317165339541,
        "Longitude(deg)": -137.498322604147,
        "Mean Anomaly(deg)": -32.10719385453821,
        "RAAN(deg)": 339.99957995086027,
        "Satellite Name": "Test1 1516",
        "Satellite Number": 1516,
        "Semi-Major Axis(m)": 6980739.136638005,
        "Time(s)": 10
    }
]